{
  "type": "FeatureCollection",
  "features": [
    {
      "type": "Feature",
      "properties": {
        "norad_id": 15362,
        "name": "NOVA 3",
        "group": "nnss",
        "lat": -45.73221622545789,
        "lon": -99.70977637996597,
        "alt_km": 1196.4891370685464,
        "timestamp": "2025-12-02T15:49:07.457888+00:00",
        "meta_object_name": "NOVA 3",
        "meta_object_id": "1984-110A",
        "meta_epoch": "2025-12-02T07:44:02.757696",
        "meta_mean_motion": 13.23042596,
        "meta_eccentricity": 0.00313398,
        "meta_inclination": 90.1225,
        "meta_ra_of_asc_node": 80.412,
        "meta_arg_of_pericenter": 1.1981,
        "meta_mean_anomaly": 61.1862,
        "meta_ephemeris_type": 0,
        "meta_classification_type": "U",
        "meta_norad_cat_id": 15362,
        "meta_element_set_no": 999,
        "meta_rev_at_epoch": 98561,
        "meta_bstar": 0.00012439466,
        "meta_mean_motion_dot": 6.1e-07,
        "meta_mean_motion_ddot": 0,
        "tle_line1": "1 15362U 84110A   25336.32225414  .00000061  00000+0  12439-3 0  9991",
        "tle_line2": "2 15362  90.1225  80.4120 0031339   1.1981  61.1862 13.23042596985610"
      },
      "geometry": {
        "type": "Point",
        "coordinates": [
          -99.70977637996597,
          -45.73221622545789
        ]
      }
    },
    {
      "type": "Feature",
      "properties": {
        "norad_id": 15935,
        "name": "OSCAR 30",
        "group": "nnss",
        "lat": -16.391233147498188,
        "lon": -80.36609387194227,
        "alt_km": 1113.8824425029788,
        "timestamp": "2025-12-02T15:49:07.457899+00:00",
        "meta_object_name": "OSCAR 30",
        "meta_object_id": "1985-066A",
        "meta_epoch": "2025-12-02T07:55:52.036896",
        "meta_mean_motion": 13.36075583,
        "meta_eccentricity": 0.01693172,
        "meta_inclination": 90.1645,
        "meta_ra_of_asc_node": 99.677,
        "meta_arg_of_pericenter": 112.9597,
        "meta_mean_anomaly": 301.5507,
        "meta_ephemeris_type": 0,
        "meta_classification_type": "U",
        "meta_norad_cat_id": 15935,
        "meta_element_set_no": 999,
        "meta_rev_at_epoch": 96314,
        "meta_bstar": 0.00020281915,
        "meta_mean_motion_dot": 1.23e-06,
        "meta_mean_motion_ddot": 0,
        "tle_line1": "1 15935U 85066A   25336.33046339  .00000123  00000+0  20282-3 0  9990",
        "tle_line2": "2 15935  90.1645  99.6770 0169317 112.9597 301.5507 13.36075583963144"
      },
      "geometry": {
        "type": "Point",
        "coordinates": [
          -80.36609387194227,
          -16.391233147498188
        ]
      }
    },
    {
      "type": "Feature",
      "properties": {
        "norad_id": 15936,
        "name": "OSCAR 24",
        "group": "nnss",
        "lat": -84.39048232930055,
        "lon": 93.94582175167014,
        "alt_km": 1249.4031985103302,
        "timestamp": "2025-12-02T15:49:07.457909+00:00",
        "meta_object_name": "OSCAR 24",
        "meta_object_id": "1985-066B",
        "meta_epoch": "2025-12-02T07:31:49.441152",
        "meta_mean_motion": 13.35933279,
        "meta_eccentricity": 0.01703389,
        "meta_inclination": 90.1785,
        "meta_ra_of_asc_node": 92.121,
        "meta_arg_of_pericenter": 119.4463,
        "meta_mean_anomaly": 295.4801,
        "meta_ephemeris_type": 0,
        "meta_classification_type": "U",
        "meta_norad_cat_id": 15936,
        "meta_element_set_no": 999,
        "meta_rev_at_epoch": 96504,
        "meta_bstar": 0.00013257039,
        "meta_mean_motion_dot": 8.4e-07,
        "meta_mean_motion_ddot": 0,
        "tle_line1": "1 15936U 85066B   25336.31376668  .00000084  00000+0  13257-3 0  9990",
        "tle_line2": "2 15936  90.1785  92.1210 0170338 119.4463 295.4801 13.35933279965049"
      },
      "geometry": {
        "type": "Point",
        "coordinates": [
          93.94582175167014,
          -84.39048232930055
        ]
      }
    },
    {
      "type": "Feature",
      "properties": {
        "norad_id": 17070,
        "name": "POLAR BEAR",
        "group": "nnss",
        "lat": 53.993797392263716,
        "lon": 3.65067968589934,
        "alt_km": 948.467008852147,
        "timestamp": "2025-12-02T15:49:07.457920+00:00",
        "meta_object_name": "POLAR BEAR",
        "meta_object_id": "1986-088A",
        "meta_epoch": "2025-12-02T03:32:25.117152",
        "meta_mean_motion": 13.75247416,
        "meta_eccentricity": 0.00401774,
        "meta_inclination": 89.6181,
        "meta_ra_of_asc_node": 184.1971,
        "meta_arg_of_pericenter": 150.1394,
        "meta_mean_anomaly": 324.6411,
        "meta_ephemeris_type": 0,
        "meta_classification_type": "U",
        "meta_norad_cat_id": 17070,
        "meta_element_set_no": 999,
        "meta_rev_at_epoch": 95833,
        "meta_bstar": 0.00012850261,
        "meta_mean_motion_dot": 1.35e-06,
        "meta_mean_motion_ddot": 0,
        "tle_line1": "1 17070U 86088A   25336.14751293  .00000135  00000+0  12850-3 0  9993",
        "tle_line2": "2 17070  89.6181 184.1971 0040177 150.1394 324.6411 13.75247416958332"
      },
      "geometry": {
        "type": "Point",
        "coordinates": [
          3.65067968589934,
          53.993797392263716
        ]
      }
    },
    {
      "type": "Feature",
      "properties": {
        "norad_id": 18361,
        "name": "OSCAR 27",
        "group": "nnss",
        "lat": 43.72184903252752,
        "lon": 78.53706669578334,
        "alt_km": 1153.9050922117167,
        "timestamp": "2025-12-02T15:49:07.457931+00:00",
        "meta_object_name": "OSCAR 27",
        "meta_object_id": "1987-080A",
        "meta_epoch": "2025-12-02T06:40:17.278464",
        "meta_mean_motion": 13.44903251,
        "meta_eccentricity": 0.01023013,
        "meta_inclination": 90.3742,
        "meta_ra_of_asc_node": 78.8809,
        "meta_arg_of_pericenter": 254.1806,
        "meta_mean_anomaly": 104.8045,
        "meta_ephemeris_type": 0,
        "meta_classification_type": "U",
        "meta_norad_cat_id": 18361,
        "meta_element_set_no": 999,
        "meta_rev_at_epoch": 87416,
        "meta_bstar": 0.00020473768,
        "meta_mean_motion_dot": 1.31e-06,
        "meta_mean_motion_ddot": 0,
        "tle_line1": "1 18361U 87080A   25336.27797776  .00000131  00000+0  20474-3 0  9997",
        "tle_line2": "2 18361  90.3742  78.8809 0102301 254.1806 104.8045 13.44903251874169"
      },
      "geometry": {
        "type": "Point",
        "coordinates": [
          78.53706669578334,
          43.72184903252752
        ]
      }
    },
    {
      "type": "Feature",
      "properties": {
        "norad_id": 18362,
        "name": "OSCAR 29",
        "group": "nnss",
        "lat": 72.47093095373333,
        "lon": 78.163669279005,
        "alt_km": 1156.525309750058,
        "timestamp": "2025-12-02T15:49:07.457941+00:00",
        "meta_object_name": "OSCAR 29",
        "meta_object_id": "1987-080B",
        "meta_epoch": "2025-12-02T06:47:22.260192",
        "meta_mean_motion": 13.44445338,
        "meta_eccentricity": 0.01036764,
        "meta_inclination": 90.3755,
        "meta_ra_of_asc_node": 79.3392,
        "meta_arg_of_pericenter": 277.6067,
        "meta_mean_anomaly": 134.5949,
        "meta_ephemeris_type": 0,
        "meta_classification_type": "U",
        "meta_norad_cat_id": 18362,
        "meta_element_set_no": 999,
        "meta_rev_at_epoch": 87369,
        "meta_bstar": 0.00016237464,
        "meta_mean_motion_dot": 1.05e-06,
        "meta_mean_motion_ddot": 0,
        "tle_line1": "1 18362U 87080B   25336.28289653  .00000105  00000+0  16237-3 0  9992",
        "tle_line2": "2 18362  90.3755  79.3392 0103676 277.6067 134.5949 13.44445338873699"
      },
      "geometry": {
        "type": "Point",
        "coordinates": [
          78.163669279005,
          72.47093095373333
        ]
      }
    },
    {
      "type": "Feature",
      "properties": {
        "norad_id": 19070,
        "name": "OSCAR 23",
        "group": "nnss",
        "lat": 89.22066187757787,
        "lon": -8.386605511444014,
        "alt_km": 1213.8567034524522,
        "timestamp": "2025-12-02T15:49:07.457952+00:00",
        "meta_object_name": "OSCAR 23",
        "meta_object_id": "1988-033A",
        "meta_epoch": "2025-12-02T04:51:39.200256",
        "meta_mean_motion": 13.2778468,
        "meta_eccentricity": 0.01886647,
        "meta_inclination": 90.3226,
        "meta_ra_of_asc_node": 16.0656,
        "meta_arg_of_pericenter": 209.2712,
        "meta_mean_anomaly": 220.7503,
        "meta_ephemeris_type": 0,
        "meta_classification_type": "U",
        "meta_norad_cat_id": 19070,
        "meta_element_set_no": 999,
        "meta_rev_at_epoch": 82113,
        "meta_bstar": 0.00022751021,
        "meta_mean_motion_dot": 1.21e-06,
        "meta_mean_motion_ddot": 0,
        "tle_line1": "1 19070U 88033A   25336.20253704  .00000121  00000+0  22751-3 0  9994",
        "tle_line2": "2 19070  90.3226  16.0656 0188664 209.2712 220.7503 13.27784680821131"
      },
      "geometry": {
        "type": "Point",
        "coordinates": [
          -8.386605511444014,
          89.22066187757787
        ]
      }
    }
  ]
}